#aV2023  8 22  0  0  0.00000000     288 DD+AD WGS84 FIT  NGA
## 2276 172800.00000000   300.00000000 60178 0.0000000000000
+   32     1  2  3  4  5  6  7  8  9 10 11 12 13 14 15 16 17
+         18 19 20 21 22 23 24 25 26 27 28 29 30 31 32  0  0
+          0  0  0  0  0  0  0  0  0  0  0  0  0  0  0  0  0
+          0  0  0  0  0  0  0  0  0  0  0  0  0  0  0  0  0
+          0  0  0  0  0  0  0  0  0  0  0  0  0  0  0  0  0
++         2  2  2  2  2  2  2  2  2  2  2  2  2  2  2  2  2
++         2  2  2  2  2  2  2  2  2  2  2  2  2  2  2  0  0
++         0  0  0  0  0  0  0  0  0  0  0  0  0  0  0  0  0
++         0  0  0  0  0  0  0  0  0  0  0  0  0  0  0  0  0
++         0  0  0  0  0  0  0  0  0  0  0  0  0  0  0  0  0
%c cc cc ccc ccc cccc cccc cccc cccc ccccc ccccc ccccc ccccc
%c cc cc ccc ccc cccc cccc cccc cccc ccccc ccccc ccccc ccccc
%f  0.0000000  0.000000000  0.00000000000  0.000000000000000
%f  0.0000000  0.000000000  0.00000000000  0.000000000000000
%i    0    0    0    0      0      0      0      0         0
%i    0    0    0    0      0      0      0      0         0
/*      NGA, ST. LOUIS,MO.                                  
/*   EPHEMERIS COMPUTED FROM 2 DAYS OF DATA                 
/*   EPOCHA v8 SMOOTHER                                     
/*   G2139 IERS2010 SATIGS SATAPC                           
*  2023  8 22 12 25  0.00000000
P  1  22092.514566  15040.754993    690.465956    167.708663                    
V  1    126.714871   2048.267797 -32154.379617     -0.012821                    
P  2  20438.814634  15970.934447  -5595.232572   -562.674074                    
V  2  -7927.665421  -1650.235469 -30737.204502      0.042199                    
P  3  12535.232240  12051.655326  19964.716404   -174.768837                    
V  3  -2788.575177  25449.869908 -13404.673060      0.188388                    
P  4  20430.803168   3621.706614  16657.018764    133.248471                    
V  4 -18596.876364  10070.978899  20513.274179      0.114273                    
P  5  -5958.348229 -24073.122220  -9550.117688   -139.775050                    
V  5   2710.853634 -11822.759309  28759.531721     -0.014608                    
P  6   7353.515538 -12664.048158  22216.851435    562.676845                    
V  6  23063.968057  15844.693293   1490.558755     -0.055732                    
P  7  22139.924224   2717.610345 -14301.128868     88.658683                    
V  7  14324.589901  12381.395736  23278.460292     -0.107377                    
P  8  11470.216694  11011.332399 -21400.569766   -138.426709                    
V  8 -23748.565757  12752.657011  -5796.906123     -0.019439                    
P  9  24307.871170  -4963.437180   9463.610279    -80.065604                    
V  9  -9588.279227   7875.167755  28469.638145      0.099135                    
P 10 -10954.295683  19249.508714 -14236.755046    -50.304149                    
V 10   -634.697400 -18570.865430 -24626.773296     -0.014955                    
P 11  -6499.352094 -19496.585607  16861.761490   -332.517164                    
V 11  18061.206486  11524.378907  20251.781050     -0.175924                    
P 12 -10187.726635 -16493.988851  17912.325422   -415.876265                    
V 12   4848.889994 -22809.209388 -17896.332359     -0.044669                    
P 13  -1892.521448 -15147.932793 -21909.031744    563.236815                    
V 13  26141.041218  -8059.716017   3551.921679      0.046860                    
P 14  13360.497117 -16146.597624 -16197.100236    161.780365                    
V 14    114.763931  20831.503712 -20806.337937      0.116010                    
P 15 -13527.755934  -9786.142872 -21173.458526     70.056700                    
V 15  21091.939196 -14978.861776  -6457.967720      0.036459                    
P 16     39.515274  25700.998340  -5976.708060   -464.872444                    
V 16  -4075.917228   6725.112605  30891.634274      0.051079                    
P 17  21632.251047 -14035.370557   7025.630485    723.052801                    
V 17   8501.286201  -1173.880687 -30296.350792      0.004855                    
P 18 -20602.118224   -528.553738 -16851.520907   -391.339506                    
V 18 -16577.053941 -13450.083058  20516.308475     -0.131899                    
P 19  16365.936576 -15610.993800  13440.896461    361.097937                    
V 19  17243.374333  -3825.669753 -25378.352566      0.051600                    
P 20  -1125.237368 -26562.565393   2059.027079    415.891123                    
V 20   3237.768872   2255.654246  31236.832007     -0.020130                    
P 21  19273.282528  16989.196167  -7820.790655    150.311456                    
V 21 -10065.579242  -3326.904748 -29127.631410     -0.006428                    
P 22  10506.850765 -22350.081510  -9662.524298    136.789859                    
V 22    236.133761  13063.544059 -28327.755332     -0.074896                    
P 23 -14594.910815   6891.846964 -21054.991219     58.271798                    
V 23    411.724542 -26748.750836  -9203.794041      0.048278                    
P 24 -21365.933827 -15625.059143  -4487.538632   -297.299464                    
V 24   6086.844170   -262.368013 -30201.724377     -0.113018                    
P 25 -15176.870196  -1715.289584  21420.520964    463.590527                    
V 25   1629.536013 -27926.149977   -805.617866      0.021285                    
P 26  -4505.156348  25254.784840   6017.538508    231.922573                    
V 26  -3850.418121  -7907.338236  30062.712235     -0.015710                    
P 27  -1502.373886  16693.810442 -20757.500840    -26.458158                    
V 27 -23686.437184  10462.191006  10656.291401     -0.066361                    
P 28      0.000000      0.000000      0.000000 999999.999999                    
V 28      0.000000      0.000000      0.000000 999999.999999                    
P 29 -24628.013184   2641.450063   9682.509181   -608.214897                    
V 29  10709.081693  -6408.422102  28741.205710     -0.006676                    
P 30  16221.202367  -6645.342390 -19901.464386   -494.372815                    
V 30  20379.962960  15472.465735  11112.932037      0.031626                    
P 31    908.534044  17626.121473  19534.314082   -222.237162                    
V 31 -21544.245168 -13453.195156  13434.327160     -0.005880                    
P 32 -18109.787802  16682.642034   9876.848070   -545.049450                    
V 32 -12232.429764   3120.034837 -28413.848846     -0.066592                    
EOF
